[{"OBJECT_NAME":"STARLINK-4084","OBJECT_ID":"2022-053B","EPOCH":"2022-10-28T14:35:00.191040","MEAN_MOTION":15.0885706,"ECCENTRICITY":0.0002332,"INCLINATION":53.2173,"RA_OF_ASC_NODE":267.1915,"ARG_OF_PERICENTER":36.3761,"MEAN_ANOMALY":323.7389,"EPHEMERIS_TYPE":0,"CLASSIFICATION_TYPE":"U","NORAD_CAT_ID":52657,"ELEMENT_SET_NO":999,"REV_AT_EPOCH":2601,"BSTAR":0.00020561,"MEAN_MOTION_DOT":2.987e-5,"MEAN_MOTION_DDOT":0},{"OBJECT_NAME":"STARLINK-4082","OBJECT_ID":"2022-053C","EPOCH":"2022-10-29T04:48:10.004256","MEAN_MOTION":15.08848249,"ECCENTRICITY":0.0002685,"INCLINATION":53.2173,"RA_OF_ASC_NODE":264.5294,"ARG_OF_PERICENTER":32.6712,"MEAN_ANOMALY":327.4445,"EPHEMERIS_TYPE":0,"CLASSIFICATION_TYPE":"U","NORAD_CAT_ID":52658,"ELEMENT_SET_NO":999,"REV_AT_EPOCH":2592,"BSTAR":0.00014741,"MEAN_MOTION_DOT":2.059e-5,"MEAN_MOTION_DDOT":0},{"OBJECT_NAME":"STARLINK-3960","OBJECT_ID":"2022-053D","EPOCH":"2022-10-29T03:14:09.766464","MEAN_MOTION":15.08850828,"ECCENTRICITY":0.0002203,"INCLINATION":53.216,"RA_OF_ASC_NODE":264.8178,"ARG_OF_PERICENTER":35.2738,"MEAN_ANOMALY":324.84,"EPHEMERIS_TYPE":0,"CLASSIFICATION_TYPE":"U","NORAD_CAT_ID":52659,"ELEMENT_SET_NO":999,"REV_AT_EPOCH":2591,"BSTAR":-5.536e-5,"MEAN_MOTION_DOT":-1.17e-5,"MEAN_MOTION_DDOT":0},{"OBJECT_NAME":"STARLINK-4081","OBJECT_ID":"2022-053E","EPOCH":"2022-10-29T03:02:11.654592","MEAN_MOTION":15.08841431,"ECCENTRICITY":0.0001961,"INCLINATION":53.2167,"RA_OF_ASC_NODE":264.8528,"ARG_OF_PERICENTER":49.729,"MEAN_ANOMALY":310.3873,"EPHEMERIS_TYPE":0,"CLASSIFICATION_TYPE":"U","NORAD_CAT_ID":52660,"ELEMENT_SET_NO":999,"REV_AT_EPOCH":2579,"BSTAR":4.08e-6,"MEAN_MOTION_DOT":-2.23e-6,"MEAN_MOTION_DDOT":0},{"OBJECT_NAME":"STARLINK-4042","OBJECT_ID":"2022-053F","EPOCH":"2022-10-28T20:35:20.176224","MEAN_MOTION":15.08848064,"ECCENTRICITY":0.0002213,"INCLINATION":53.2159,"RA_OF_ASC_NODE":266.0638,"ARG_OF_PERICENTER":35.83,"MEAN_ANOMALY":324.284,"EPHEMERIS_TYPE":0,"CLASSIFICATION_TYPE":"U","NORAD_CAT_ID":52661,"ELEMENT_SET_NO":999,"REV_AT_EPOCH":2568,"BSTAR":7.4669e-5,"MEAN_MOTION_DOT":9.01e-6,"MEAN_MOTION_DDOT":0},{"OBJECT_NAME":"STARLINK-4044","OBJECT_ID":"2022-053G","EPOCH":"2022-10-29T04:21:40.252032","MEAN_MOTION":15.08857503,"ECCENTRICITY":0.0002173,"INCLINATION":53.2165,"RA_OF_ASC_NODE":264.6311,"ARG_OF_PERICENTER":40.8954,"MEAN_ANOMALY":319.2201,"EPHEMERIS_TYPE":0,"CLASSIFICATION_TYPE":"U","NORAD_CAT_ID":52662,"ELEMENT_SET_NO":999,"REV_AT_EPOCH":2573,"BSTAR":0.00025017,"MEAN_MOTION_DOT":3.697e-5,"MEAN_MOTION_DDOT":0},{"OBJECT_NAME":"STARLINK-4037","OBJECT_ID":"2022-053H","EPOCH":"2022-10-28T17:08:40.572672","MEAN_MOTION":15.08860412,"ECCENTRICITY":0.0002711,"INCLINATION":53.2159,"RA_OF_ASC_NODE":266.7229,"ARG_OF_PERICENTER":34.0881,"MEAN_ANOMALY":326.0285,"EPHEMERIS_TYPE":0,"CLASSIFICATION_TYPE":"U","NORAD_CAT_ID":52663,"ELEMENT_SET_NO":999,"REV_AT_EPOCH":2566,"BSTAR":0.00020033,"MEAN_MOTION_DOT":2.903e-5,"MEAN_MOTION_DDOT":0},{"OBJECT_NAME":"STARLINK-4070","OBJECT_ID":"2022-053J","EPOCH":"2022-10-28T07:46:58.376064","MEAN_MOTION":15.08842254,"ECCENTRICITY":0.0002596,"INCLINATION":53.2181,"RA_OF_ASC_NODE":268.4749,"ARG_OF_PERICENTER":36.2569,"MEAN_ANOMALY":323.8599,"EPHEMERIS_TYPE":0,"CLASSIFICATION_TYPE":"U","NORAD_CAT_ID":52664,"ELEMENT_SET_NO":999,"REV_AT_EPOCH":2560,"BSTAR":8.9084e-5,"MEAN_MOTION_DOT":1.13e-5,"MEAN_MOTION_DDOT":0},{"OBJECT_NAME":"STARLINK-4064","OBJECT_ID":"2022-053K","EPOCH":"2022-10-29T04:00:28.662624","MEAN_MOTION":15.08848015,"ECCENTRICITY":0.0002164,"INCLINATION":53.2166,"RA_OF_ASC_NODE":264.6917,"ARG_OF_PERICENTER":42.5079,"MEAN_ANOMALY":317.608,"EPHEMERIS_TYPE":0,"CLASSIFICATION_TYPE":"U","NORAD_CAT_ID":52665,"ELEMENT_SET_NO":999,"REV_AT_EPOCH":2573,"BSTAR":3.3959e-5,"MEAN_MOTION_DOT":2.52e-6,"MEAN_MOTION_DDOT":0},{"OBJECT_NAME":"STARLINK-4079","OBJECT_ID":"2022-053L","EPOCH":"2022-10-29T04:11:04.842240","MEAN_MOTION":15.08859107,"ECCENTRICITY":0.000218,"INCLINATION":53.2164,"RA_OF_ASC_NODE":264.6576,"ARG_OF_PERICENTER":43.1252,"MEAN_ANOMALY":316.991,"EPHEMERIS_TYPE":0,"CLASSIFICATION_TYPE":"U","NORAD_CAT_ID":52666,"ELEMENT_SET_NO":999,"REV_AT_EPOCH":2573,"BSTAR":0.0001245,"MEAN_MOTION_DOT":1.695e-5,"MEAN_MOTION_DDOT":0},{"OBJECT_NAME":"STARLINK-4076","OBJECT_ID":"2022-053M","EPOCH":"2022-10-29T03:55:09.248736","MEAN_MOTION":15.08893482,"ECCENTRICITY":0.0002126,"INCLINATION":53.2164,"RA_OF_ASC_NODE":264.7094,"ARG_OF_PERICENTER":49.6865,"MEAN_ANOMALY":310.4312,"EPHEMERIS_TYPE":0,"CLASSIFICATION_TYPE":"U","NORAD_CAT_ID":52667,"ELEMENT_SET_NO":999,"REV_AT_EPOCH":2573,"BSTAR":0.00090833,"MEAN_MOTION_DOT":0.00014219,"MEAN_MOTION_DDOT":0},{"OBJECT_NAME":"STARLINK-4067","OBJECT_ID":"2022-053N","EPOCH":"2022-10-29T04:05:46.541184","MEAN_MOTION":15.0885298,"ECCENTRICITY":0.0002656,"INCLINATION":53.2185,"RA_OF_ASC_NODE":264.6814,"ARG_OF_PERICENTER":28.9614,"MEAN_ANOMALY":331.1525,"EPHEMERIS_TYPE":0,"CLASSIFICATION_TYPE":"U","NORAD_CAT_ID":52668,"ELEMENT_SET_NO":999,"REV_AT_EPOCH":2573,"BSTAR":0.00020785,"MEAN_MOTION_DOT":3.022e-5,"MEAN_MOTION_DDOT":0},{"OBJECT_NAME":"STARLINK-3972","OBJECT_ID":"2022-053P","EPOCH":"2022-10-29T03:39:16.944480","MEAN_MOTION":15.08847722,"ECCENTRICITY":0.0002222,"INCLINATION":53.2172,"RA_OF_ASC_NODE":264.7613,"ARG_OF_PERICENTER":42.9025,"MEAN_ANOMALY":317.2141,"EPHEMERIS_TYPE":0,"CLASSIFICATION_TYPE":"U","NORAD_CAT_ID":52669,"ELEMENT_SET_NO":999,"REV_AT_EPOCH":2572,"BSTAR":6.2461e-5,"MEAN_MOTION_DOT":7.06e-6,"MEAN_MOTION_DDOT":0},{"OBJECT_NAME":"STARLINK-4075","OBJECT_ID":"2022-053Q","EPOCH":"2022-10-29T04:01:51.320640","MEAN_MOTION":15.08846477,"ECCENTRICITY":0.0002378,"INCLINATION":53.2162,"RA_OF_ASC_NODE":264.6876,"ARG_OF_PERICENTER":40.419,"MEAN_ANOMALY":319.6979,"EPHEMERIS_TYPE":0,"CLASSIFICATION_TYPE":"U","NORAD_CAT_ID":52670,"ELEMENT_SET_NO":999,"REV_AT_EPOCH":2529,"BSTAR":0.00010911,"MEAN_MOTION_DOT":1.449e-5,"MEAN_MOTION_DDOT":0},{"OBJECT_NAME":"STARLINK-4071","OBJECT_ID":"2022-053R","EPOCH":"2022-10-29T06:44:45.425184","MEAN_MOTION":15.08848485,"ECCENTRICITY":0.0002189,"INCLINATION":53.2162,"RA_OF_ASC_NODE":264.1797,"ARG_OF_PERICENTER":43.51,"MEAN_ANOMALY":316.6065,"EPHEMERIS_TYPE":0,"CLASSIFICATION_TYPE":"U","NORAD_CAT_ID":52671,"ELEMENT_SET_NO":999,"REV_AT_EPOCH":2531,"BSTAR":-6.4866e-5,"MEAN_MOTION_DOT":-1.321e-5,"MEAN_MOTION_DDOT":0},{"OBJECT_NAME":"STARLINK-4073","OBJECT_ID":"2022-053S","EPOCH":"2022-10-28T16:42:11.045952","MEAN_MOTION":15.08848034,"ECCENTRICITY":0.000234,"INCLINATION":53.2166,"RA_OF_ASC_NODE":266.8079,"ARG_OF_PERICENTER":40.1111,"MEAN_ANOMALY":320.0054,"EPHEMERIS_TYPE":0,"CLASSIFICATION_TYPE":"U","NORAD_CAT_ID":52672,"ELEMENT_SET_NO":999,"REV_AT_EPOCH":2565,"BSTAR":0.0001096,"MEAN_MOTION_DOT":1.457e-5,"MEAN_MOTION_DDOT":0},{"OBJECT_NAME":"STARLINK-3976","OBJECT_ID":"2022-053T","EPOCH":"2022-10-29T03:23:22.800768","MEAN_MOTION":15.08852612,"ECCENTRICITY":0.0002165,"INCLINATION":53.2182,"RA_OF_ASC_NODE":264.7951,"ARG_OF_PERICENTER":47.126,"MEAN_ANOMALY":312.9914,"EPHEMERIS_TYPE":0,"CLASSIFICATION_TYPE":"U","NORAD_CAT_ID":52673,"ELEMENT_SET_NO":999,"REV_AT_EPOCH":2529,"BSTAR":2.5718e-5,"MEAN_MOTION_DOT":1.21e-6,"MEAN_MOTION_DDOT":0},{"OBJECT_NAME":"STARLINK-3936","OBJECT_ID":"2022-053U","EPOCH":"2022-10-28T15:01:30.249984","MEAN_MOTION":15.0885322,"ECCENTRICITY":0.0002421,"INCLINATION":53.2155,"RA_OF_ASC_NODE":267.121,"ARG_OF_PERICENTER":41.7406,"MEAN_ANOMALY":318.3771,"EPHEMERIS_TYPE":0,"CLASSIFICATION_TYPE":"U","NORAD_CAT_ID":52674,"ELEMENT_SET_NO":999,"REV_AT_EPOCH":2521,"BSTAR":0.00016162,"MEAN_MOTION_DOT":2.286e-5,"MEAN_MOTION_DDOT":0},{"OBJECT_NAME":"STARLINK-3934","OBJECT_ID":"2022-053V","EPOCH":"2022-10-29T03:19:24.525984","MEAN_MOTION":15.08859421,"ECCENTRICITY":0.0002184,"INCLINATION":53.2152,"RA_OF_ASC_NODE":254.8045,"ARG_OF_PERICENTER":36.6376,"MEAN_ANOMALY":323.4765,"EPHEMERIS_TYPE":0,"CLASSIFICATION_TYPE":"U","NORAD_CAT_ID":52675,"ELEMENT_SET_NO":999,"REV_AT_EPOCH":2542,"BSTAR":0.0001288,"MEAN_MOTION_DOT":1.763e-5,"MEAN_MOTION_DDOT":0},{"OBJECT_NAME":"STARLINK-4006","OBJECT_ID":"2022-053W","EPOCH":"2022-10-29T03:28:41.231424","MEAN_MOTION":15.08843771,"ECCENTRICITY":0.0002219,"INCLINATION":53.2177,"RA_OF_ASC_NODE":264.7887,"ARG_OF_PERICENTER":46.3116,"MEAN_ANOMALY":313.806,"EPHEMERIS_TYPE":0,"CLASSIFICATION_TYPE":"U","NORAD_CAT_ID":52676,"ELEMENT_SET_NO":999,"REV_AT_EPOCH":2529,"BSTAR":-0.00016323,"MEAN_MOTION_DOT":-2.886e-5,"MEAN_MOTION_DDOT":0},{"OBJECT_NAME":"STARLINK-4028","OBJECT_ID":"2022-053X","EPOCH":"2022-10-28T14:25:43.991040","MEAN_MOTION":15.08847056,"ECCENTRICITY":0.0002419,"INCLINATION":53.2165,"RA_OF_ASC_NODE":257.2194,"ARG_OF_PERICENTER":38.417,"MEAN_ANOMALY":321.6994,"EPHEMERIS_TYPE":0,"CLASSIFICATION_TYPE":"U","NORAD_CAT_ID":52677,"ELEMENT_SET_NO":999,"REV_AT_EPOCH":2534,"BSTAR":9.0418e-5,"MEAN_MOTION_DOT":1.151e-5,"MEAN_MOTION_DDOT":0},{"OBJECT_NAME":"STARLINK-4074","OBJECT_ID":"2022-053Y","EPOCH":"2022-10-28T05:05:23.554752","MEAN_MOTION":15.08853977,"ECCENTRICITY":0.0002335,"INCLINATION":53.2175,"RA_OF_ASC_NODE":258.9666,"ARG_OF_PERICENTER":37.6357,"MEAN_ANOMALY":322.4798,"EPHEMERIS_TYPE":0,"CLASSIFICATION_TYPE":"U","NORAD_CAT_ID":52678,"ELEMENT_SET_NO":999,"REV_AT_EPOCH":2528,"BSTAR":0.00014036,"MEAN_MOTION_DOT":1.947e-5,"MEAN_MOTION_DDOT":0},{"OBJECT_NAME":"STARLINK-4031","OBJECT_ID":"2022-053Z","EPOCH":"2022-10-28T20:31:22.399104","MEAN_MOTION":15.0885099,"ECCENTRICITY":0.0002175,"INCLINATION":53.217,"RA_OF_ASC_NODE":256.084,"ARG_OF_PERICENTER":46.4289,"MEAN_ANOMALY":313.6884,"EPHEMERIS_TYPE":0,"CLASSIFICATION_TYPE":"U","NORAD_CAT_ID":52679,"ELEMENT_SET_NO":999,"REV_AT_EPOCH":2577,"BSTAR":9.2647e-5,"MEAN_MOTION_DOT":1.187e-5,"MEAN_MOTION_DDOT":0},{"OBJECT_NAME":"STARLINK-3774","OBJECT_ID":"2022-053AA","EPOCH":"2022-10-28T14:31:01.652736","MEAN_MOTION":15.08852212,"ECCENTRICITY":0.000222,"INCLINATION":53.2159,"RA_OF_ASC_NODE":257.2006,"ARG_OF_PERICENTER":38.2185,"MEAN_ANOMALY":321.8964,"EPHEMERIS_TYPE":0,"CLASSIFICATION_TYPE":"U","NORAD_CAT_ID":52680,"ELEMENT_SET_NO":999,"REV_AT_EPOCH":2534,"BSTAR":7.8754e-5,"MEAN_MOTION_DOT":9.66e-6,"MEAN_MOTION_DDOT":0}]
